[{"OBJECT_NAME":"HXMT (HUIYAN)","OBJECT_ID":"2017-034A","EPOCH":"2026-03-03T11:00:11.814048","MEAN_MOTION":15.1736358,"ECCENTRICITY":0.0032245,"INCLINATION":43.0149,"RA_OF_ASC_NODE":51.3128,"ARG_OF_PERICENTER":197.7187,"MEAN_ANOMALY":162.2538,"EPHEMERIS_TYPE":0,"CLASSIFICATION_TYPE":"U","NORAD_CAT_ID":42758,"ELEMENT_SET_NO":999,"REV_AT_EPOCH":48159,"BSTAR":0.00033103,"MEAN_MOTION_DOT":6.583e-5,"MEAN_MOTION_DDOT":0},{"OBJECT_NAME":"SAOCOM 1A","OBJECT_ID":"2018-076A","EPOCH":"2026-03-03T11:34:07.699584","MEAN_MOTION":14.82161935,"ECCENTRICITY":0.0001276,"INCLINATION":97.8883,"RA_OF_ASC_NODE":250.742,"ARG_OF_PERICENTER":85.1433,"MEAN_ANOMALY":274.9926,"EPHEMERIS_TYPE":0,"CLASSIFICATION_TYPE":"U","NORAD_CAT_ID":43641,"ELEMENT_SET_NO":999,"REV_AT_EPOCH":40044,"BSTAR":0.00011721,"MEAN_MOTION_DOT":8.81e-6,"MEAN_MOTION_DDOT":0},{"OBJECT_NAME":"H-2A R/B","OBJECT_ID":"2018-084L","EPOCH":"2026-03-03T12:00:01.270080","MEAN_MOTION":15.41025493,"ECCENTRICITY":0.0025827,"INCLINATION":98.8736,"RA_OF_ASC_NODE":278.5669,"ARG_OF_PERICENTER":46.222,"MEAN_ANOMALY":314.1153,"EPHEMERIS_TYPE":0,"CLASSIFICATION_TYPE":"U","NORAD_CAT_ID":43682,"ELEMENT_SET_NO":999,"REV_AT_EPOCH":40482,"BSTAR":0.00056364,"MEAN_MOTION_DOT":0.0002347,"MEAN_MOTION_DDOT":0},{"OBJECT_NAME":"SAOCOM 1B","OBJECT_ID":"2020-059A","EPOCH":"2026-03-03T12:19:05.429856","MEAN_MOTION":14.82163485,"ECCENTRICITY":0.0001434,"INCLINATION":97.8882,"RA_OF_ASC_NODE":249.8707,"ARG_OF_PERICENTER":81.4441,"MEAN_ANOMALY":278.6935,"EPHEMERIS_TYPE":0,"CLASSIFICATION_TYPE":"U","NORAD_CAT_ID":46265,"ELEMENT_SET_NO":999,"REV_AT_EPOCH":29783,"BSTAR":1.3746e-5,"MEAN_MOTION_DOT":5.7e-7,"MEAN_MOTION_DDOT":0},{"OBJECT_NAME":"CSS (TIANHE)","OBJECT_ID":"2021-035A","EPOCH":"2026-03-02T19:17:14.095104","MEAN_MOTION":15.60315912,"ECCENTRICITY":0.00066169,"INCLINATION":41.4651,"RA_OF_ASC_NODE":250.0496,"ARG_OF_PERICENTER":230.1207,"MEAN_ANOMALY":129.905,"EPHEMERIS_TYPE":0,"CLASSIFICATION_TYPE":"U","NORAD_CAT_ID":48274,"ELEMENT_SET_NO":999,"REV_AT_EPOCH":27653,"BSTAR":0.00021016754,"MEAN_MOTION_DOT":0.00017409,"MEAN_MOTION_DDOT":0},{"OBJECT_NAME":"COSMOS 2550","OBJECT_ID":"2021-056A","EPOCH":"2026-03-03T12:26:15.275904","MEAN_MOTION":15.33843242,"ECCENTRICITY":0.0008367,"INCLINATION":67.1426,"RA_OF_ASC_NODE":59.5994,"ARG_OF_PERICENTER":269.1086,"MEAN_ANOMALY":90.911,"EPHEMERIS_TYPE":0,"CLASSIFICATION_TYPE":"U","NORAD_CAT_ID":48865,"ELEMENT_SET_NO":999,"REV_AT_EPOCH":26251,"BSTAR":5.8363e-8,"MEAN_MOTION_DOT":-1.9e-6,"MEAN_MOTION_DDOT":0},{"OBJECT_NAME":"CZ-2C R/B","OBJECT_ID":"2022-058K","EPOCH":"2026-03-03T05:03:18.537408","MEAN_MOTION":15.53679339,"ECCENTRICITY":0.004218,"INCLINATION":50.1905,"RA_OF_ASC_NODE":351.6043,"ARG_OF_PERICENTER":173.2115,"MEAN_ANOMALY":186.9436,"EPHEMERIS_TYPE":0,"CLASSIFICATION_TYPE":"U","NORAD_CAT_ID":52794,"ELEMENT_SET_NO":999,"REV_AT_EPOCH":20912,"BSTAR":0.00053678,"MEAN_MOTION_DOT":0.00036042,"MEAN_MOTION_DDOT":0},{"OBJECT_NAME":"CZ-2C R/B","OBJECT_ID":"2022-132E","EPOCH":"2026-03-03T11:25:30.599040","MEAN_MOTION":15.61214914,"ECCENTRICITY":0.0020777,"INCLINATION":97.2955,"RA_OF_ASC_NODE":65.6069,"ARG_OF_PERICENTER":110.9864,"MEAN_ANOMALY":249.3619,"EPHEMERIS_TYPE":0,"CLASSIFICATION_TYPE":"U","NORAD_CAT_ID":54039,"ELEMENT_SET_NO":999,"REV_AT_EPOCH":18940,"BSTAR":0.00057096,"MEAN_MOTION_DOT":0.00048909,"MEAN_MOTION_DDOT":0},{"OBJECT_NAME":"GSLV R/B","OBJECT_ID":"2022-138AN","EPOCH":"2026-03-03T08:51:58.447008","MEAN_MOTION":14.9671883,"ECCENTRICITY":0.0022064,"INCLINATION":87.3885,"RA_OF_ASC_NODE":168.4771,"ARG_OF_PERICENTER":168.6527,"MEAN_ANOMALY":191.5207,"EPHEMERIS_TYPE":0,"CLASSIFICATION_TYPE":"U","NORAD_CAT_ID":54149,"ELEMENT_SET_NO":999,"REV_AT_EPOCH":18298,"BSTAR":0.00042834,"MEAN_MOTION_DOT":4.943e-5,"MEAN_MOTION_DDOT":0},{"OBJECT_NAME":"XRISM","OBJECT_ID":"2023-137A","EPOCH":"2026-03-03T02:27:56.678112","MEAN_MOTION":15.1140731,"ECCENTRICITY":0.0008204,"INCLINATION":31.0033,"RA_OF_ASC_NODE":326.2655,"ARG_OF_PERICENTER":332.0919,"MEAN_ANOMALY":27.9278,"EPHEMERIS_TYPE":0,"CLASSIFICATION_TYPE":"U","NORAD_CAT_ID":57800,"ELEMENT_SET_NO":999,"REV_AT_EPOCH":13679,"BSTAR":0.00041646,"MEAN_MOTION_DOT":7.313e-5,"MEAN_MOTION_DDOT":0},{"OBJECT_NAME":"ACS3","OBJECT_ID":"2024-077B","EPOCH":"2026-03-03T10:46:28.358976","MEAN_MOTION":13.89285723,"ECCENTRICITY":0.0055194,"INCLINATION":97.2114,"RA_OF_ASC_NODE":4.9634,"ARG_OF_PERICENTER":93.4319,"MEAN_ANOMALY":267.316,"EPHEMERIS_TYPE":0,"CLASSIFICATION_TYPE":"U","NORAD_CAT_ID":59588,"ELEMENT_SET_NO":999,"REV_AT_EPOCH":9333,"BSTAR":0.020475,"MEAN_MOTION_DOT":0.00025285,"MEAN_MOTION_DDOT":0},{"OBJECT_NAME":"SZ-21 MODULE","OBJECT_ID":"2025-246C","EPOCH":"2026-03-03T12:20:44.084832","MEAN_MOTION":15.67986981,"ECCENTRICITY":0.0001453,"INCLINATION":41.4734,"RA_OF_ASC_NODE":241.3606,"ARG_OF_PERICENTER":287.8659,"MEAN_ANOMALY":72.2024,"EPHEMERIS_TYPE":0,"CLASSIFICATION_TYPE":"U","NORAD_CAT_ID":66515,"ELEMENT_SET_NO":999,"REV_AT_EPOCH":1710,"BSTAR":0.00035642,"MEAN_MOTION_DOT":0.00040507,"MEAN_MOTION_DDOT":0}]
